stk.v.4.3 

BEGIN Ephemeris 
 
NumberOfEphemerisPoints		146 
ScenarioEpoch	    2 Jan 2020 13:56:45.845966935 
InterpolationMethod		Lagrange 
InterpolationOrder		5 
CentralBody				Earth 
CoordinateSystem			TEME 
CoordinateSystemEpoch	  2 Jan 2020 13:56:45.845966935 
DistanceUnit			Kilometers 
 
EphemerisTimePosVel 
 
       0.00000000   -6891.41027697   -1936.44190114       0.04162428  0.135941256 -0.448472801  7.449328893
 END Ephemeris 
